COMMENT,ORIGINATOR,NORAD_CAT_ID,OBJECT_NAME,OBJECT_TYPE,CLASSIFICATION_TYPE,INTLDES,EPOCH,EPOCH_MICROSECONDS,MEAN_MOTION,ECCENTRICITY,INCLINATION,RA_OF_ASC_NODE,ARG_OF_PERICENTER,MEAN_ANOMALY,EPHEMERIS_TYPE,ELEMENT_SET_NO,REV_AT_EPOCH,BSTAR,MEAN_MOTION_DOT,MEAN_MOTION_DDOT,FILE,TLE_LINE0,TLE_LINE1,TLE_LINE2,OBJECT_ID,OBJECT_NUMBER,SEMIMAJOR_AXIS,PERIOD,APOGEE,PERIGEE
"GENERATED VIA SPACETRACK.ORG API","JSPOC","38256","TIANHUI 1-02","PAYLOAD","U","12020A","2016-01-14 04:30:08","229600","15.23187974","0.0012711","97.4969","141.1882","255.3833","224.1946","0","999","20520","0.00014429","3.346e-05","0","1980122","0 TIANHUI 1-02","1 38256U 12020A   16014.18759525  .00003346  00000-0  14429-3 0  9992","2 38256  97.4969 141.1882 0012711 255.3833 224.1946 15.23187974205200","2012-020A","38256","6874.368","94.538","504.972","487.495"
"GENERATED VIA SPACETRACK.ORG API","JSPOC","23723","AMOS 5I (ASIASAT 2)","PAYLOAD","U","95064A","2016-01-14 04:30:12","424320","0.99304654","0.0012621","4.1377","65.0539","220.3626","194.1939","0","999","7360","0","-2.05e-06","0","1980163","0 AMOS 5I (ASIASAT 2)","1 23723U 95064A   16014.18764380 -.00000205  00000-0  00000+0 0  9997","2 23723   4.1377  65.0539 0012621 220.3626 194.1939  0.99304654 73604","1995-064A","23723","42438.051","1450.083","36113.477","36006.355"
"GENERATED VIA SPACETRACK.ORG API","JSPOC","26871","GOES 12","PAYLOAD","U","01031A","2016-01-14 04:30:12","424320","0.99137657","0.0010207","5.3843","64.1993","213.5145","205.0056","0","999","5299","0","-1.98e-06","0","1980263","0 GOES 12","1 26871U 01031A   16014.18764380 -.00000198  00000-0  00000+0 0  9996","2 26871   5.3843  64.1993 0010207 213.5145 205.0056  0.99137657 52992","2001-031A","26871","42485.696","1452.525","36150.926","36064.196"
"GENERATED VIA SPACETRACK.ORG API","JSPOC","39419","DUBAISAT 2","PAYLOAD","U","13066D","2016-01-14 04:30:22","456224","14.93080273","0.0013562","97.7334","91.2723","194.7838","165.2978","0","999","11689","0.00013635","1.366e-05","0","1980068","0 DUBAISAT 2","1 39419U 13066D   16014.18775991  .00001366  00000-0  13635-3 0  9998","2 39419  97.7334  91.2723 0013562 194.7838 165.2978 14.93080273116892","2013-066D","39419","6966.474","96.444","597.787","578.891"
"GENERATED VIA SPACETRACK.ORG API","JSPOC","17192","SL-14 R/B","ROCKET BODY","U","86097B","2016-01-14 04:30:33","998400","14.83396798","0.0017484","82.5051","24.5235","20.5774","29.5006","0","999","57158","2.2137e-05","2.06e-06","0","1980048","0 SL-14 R/B","1 17192U 86097B   16014.18789350  .00000206  00000-0  22137-4 0  9990","2 17192  82.5051  24.5235 0017484  20.5774  29.5006 14.83396798571589","1986-097B","17192","6996.759","97.074","630.857","606.391"
"GENERATED VIA SPACETRACK.ORG API","JSPOC","39455","SHIYUAN 5 (SY-5)","PAYLOAD","U","13068A","2016-01-14 04:30:38","911104","14.43687659","0.0013236","97.9254","19.9968","11.1619","348.9866","0","999","11255","3.5718e-05","8.2e-07","0","1980083","0 SHIYUAN 5 (SY-5)","1 39455U 13068A   16014.18795036  .00000082  00000-0  35718-4 0  9993","2 39455  97.9254  19.9968 0013236  11.1619 348.9866 14.43687659112551","2013-068A","39455","7124.477","99.744","755.772","736.912"
"GENERATED VIA SPACETRACK.ORG API","JSPOC","9846","COSMOS 894","PAYLOAD","U","77013A","2016-01-14 04:30:40","328064","13.73907003","0.003021","82.9431","31.9409","14.2394","55.7519","0","999","94964","1.091e-05","2.5e-07","0","1980032","0 COSMOS 894","1 09846U 77013A   16014.18796676  .00000025  00000-0  10910-4 0  9999","2 09846  82.9431  31.9409 0030210  14.2394  55.7519 13.73907003949648","1977-013A","9846","7363.714","104.810","1007.825","963.333"
"GENERATED VIA SPACETRACK.ORG API","JSPOC","35683","DMC 2","PAYLOAD","U","09041C","2016-01-14 04:31:05","689920","14.70822815","0.0001199","97.9069","264.4006","78.4859","281.6491","0","999","34656","2.7349e-05","1.2e-06","0","1980062","0 DMC 2","1 35683U 09041C   16014.18826030  .00000120  00000-0  27349-4 0  9991","2 35683  97.9069 264.4006 0001199  78.4859 281.6491 14.70822815346563","2009-041C","35683","7036.579","97.904","659.288","657.600"
"GENERATED VIA SPACETRACK.ORG API","JSPOC","18958","COSMOS 1933","PAYLOAD","U","88020A","2016-01-14 04:31:40","879776","15.02668663","0.0010377","82.529","245.4125","249.3446","110.6667","0","999","51342","8.5795e-05","1.172e-05","0","1980203","0 COSMOS 1933","1 18958U 88020A   16014.18866759  .00001172  00000-0  85795-4 0  9990","2 18958  82.5290 245.4125 0010377 249.3446 110.6667 15.02668663513427","1988-020A","18958","6936.808","95.829","565.871","551.474"
"GENERATED VIA SPACETRACK.ORG API","JSPOC","11112","SL-8 R/B","ROCKET BODY","U","78105B","2016-01-14 04:31:54","204384","14.37042135","0.003468","74.0309","42.9043","322.9691","36.9069","0","999","94505","5.0398e-05","1.24e-06","0","1980010","0 SL-8 R/B","1 11112U 78105B   16014.18882181  .00000124  00000-0  50398-4 0  9992","2 11112  74.0309  42.9043 0034680 322.9691  36.9069 14.37042135945052","1978-105B","11112","7146.424","100.205","793.073","743.506"
"GENERATED VIA SPACETRACK.ORG API","JSPOC","8419","COSMOS 778","PAYLOAD","U","75103A","2016-01-14 04:32:14","175744","13.74558977","0.002273","82.9723","219.8738","39.5037","98.8301","0","999","1579","2.2959e-05","3.7e-07","0","1980044","0 COSMOS 778","1 08419U 75103A   16014.18905296  .00000037  00000-0  22959-4 0  9991","2 08419  82.9723 219.8738 0022730  39.5037  98.8301 13.74558977 15791","1975-103A","8419","7361.385","104.760","999.983","966.518"
"GENERATED VIA SPACETRACK.ORG API","JSPOC","13242","SL-8 R/B","ROCKET BODY","U","82051B","2016-01-14 04:32:14","778816","14.35788973","0.002541","74.042","226.7437","198.1049","301.3384","0","999","75898","3.7848e-05","8.4e-07","0","1980076","0 SL-8 R/B","1 13242U 82051B   16014.18905994  .00000084  00000-0  37848-4 0  9991","2 13242  74.0420 226.7437 0025410 198.1049 301.3384 14.35788973758980","1982-051B","13242","7150.582","100.293","790.617","754.278"
"GENERATED VIA SPACETRACK.ORG API","JSPOC","37389","XSAT","PAYLOAD","U","11015C","2016-01-14 04:32:35","41344","14.24278602","0.0013652","98.6221","94.1492","326.6464","33.3864","0","999","24620","3.2761e-05","3.2e-07","0","1980062","0 XSAT","1 37389U 11015C   16014.18929446  .00000032  00000-0  32761-4 0  9991","2 37389  98.6221  94.1492 0013652 326.6464  33.3864 14.24278602246204","2011-015C","37389","7189.056","101.103","820.735","801.106"
"GENERATED VIA SPACETRACK.ORG API","JSPOC","4507","NNSS 19 (TRANSIT 19)","PAYLOAD","U","70067A","2016-01-14 04:32:35","594304","13.50592879","0.0172101","89.8275","271.7078","336.1332","133.3545","0","999","23383","0.00013007","1e-06","0","1980077","0 NNSS 19 (TRANSIT 19)","1 04507U 70067A   16014.18930086  .00000100  00000-0  13007-3 0  9998","2 04507  89.8275 271.7078 0172101 336.1332 133.3545 13.50592879233834","1970-067A","4507","7448.214","106.619","1198.264","941.895"
"GENERATED VIA SPACETRACK.ORG API","JSPOC","33434","CHUANG XIN 1-02(CX-1-02)","PAYLOAD","U","08056B","2016-01-14 04:32:40","985664","14.29344853","0.0015004","98.5902","4.3863","132.0501","228.196","0","999","37507","2.8143e-05","2.8e-07","0","1980026","0 CHUANG XIN 1-02(CX-1-02)","1 33434U 08056B   16014.18936326  .00000028  00000-0  28143-4 0  9998","2 33434  98.5902   4.3863 0015004 132.0501 228.1960 14.29344853375071","2008-056B","33434","7172.058","100.745","804.684","783.162"
"GENERATED VIA SPACETRACK.ORG API","JSPOC","21152","NADEZHDA 3","PAYLOAD","U","91019A","2016-01-14 04:32:46","847040","13.74196954","0.0040517","82.926","246.8457","240.2916","240.0249","0","999","24553","3.2772e-05","4.6e-07","0","1980023","0 NADEZHDA 3","1 21152U 91019A   16014.18943110  .00000046  00000-0  32772-4 0  9995","2 21152  82.9260 246.8457 0040517 240.2916 240.0249 13.74196954245536","1991-019A","21152","7362.678","104.788","1014.375","954.712"
"GENERATED VIA SPACETRACK.ORG API","JSPOC","22949","MOLNIYA 1-87","PAYLOAD","U","93079A","2016-01-14 04:32:54","195360","2.01220284","0.7505237","62.0369","46.5656","279.8102","10.3964","0","999","16170","0.0013277","6.733e-05","0","1980187","0 MOLNIYA 1-87","1 22949U 93079A   16014.18951615  .00006733  00000-0  13277-2 0  9993","2 22949  62.0369  46.5656 7505237 279.8102  10.3964  2.01220284161703","1993-079A","22949","26502.530","715.633","40015.172","233.618"
"GENERATED VIA SPACETRACK.ORG API","JSPOC","4048","THOR BURNER 2 R/B","ROCKET BODY","U","69062B","2016-01-14 04:32:56","716512","14.30819501","0.0042778","98.7479","220.8947","136.1001","224.3593","0","999","42004","4.3475e-05","7e-07","0","1980013","0 THOR BURNER 2 R/B","1 04048U 69062B   16014.18954533  .00000070  00000-0  43475-4 0  9993","2 04048  98.7479 220.8947 0042778 136.1001 224.3593 14.30819501420044","1969-062B","4048","7167.129","100.641","819.654","758.335"
"GENERATED VIA SPACETRACK.ORG API","JSPOC","11308","COSMOS 1089","PAYLOAD","U","79026A","2016-01-14 04:33:04","139136","13.75125012","0.0022019","82.9754","83.3061","205.5606","212.7158","0","999","84639","3.4402e-05","4.8e-07","0","1980081","0 COSMOS 1089","1 11308U 79026A   16014.18963124  .00000048  00000-0  34402-4 0  9992","2 11308  82.9754  83.3061 0022019 205.5606 212.7158 13.75125012846392","1979-026A","11308","7359.365","104.717","997.435","965.026"
"GENERATED VIA SPACETRACK.ORG API","JSPOC","37388","YOUTHSAT","PAYLOAD","U","11015B","2016-01-14 04:33:13","373568","14.24088232","0.0014226","98.618","92.9583","326.6894","33.3396","0","999","24616","4.5654e-05","6.2e-07","0","1980114","0 YOUTHSAT","1 37388U 11015B   16014.18973812  .00000062  00000-0  45654-4 0  9994","2 37388  98.6180  92.9583 0014226 326.6894  33.3396 14.24088232246162","2011-015B","37388","7189.696","101.117","821.789","801.333"
